[
    {
        "Altitude(m)": 565800.860189817,
        "Argument of Periapsis(deg)": 0.026491964442854003,
        "Eccentricity": 0.0,
        "Inclination(deg)": 53.0,
        "Latitude(deg)": -38.25654892066019,
        "Longitude(deg)": 95.59164438107756,
        "Mean Anomaly(deg)": -50.5426285296897,
        "RAAN(deg)": 234.96057347411207,
        "Satellite Name": "Starlink Shell 1 1050",
        "Satellite Number": 1050,
        "Semi-Major Axis(m)": 6931778.249405717,
        "Time(s)": 760
    },
    {
        "Altitude(m)": 565634.1200932187,
        "Argument of Periapsis(deg)": 0.02684054292236524,
        "Eccentricity": 0.0,
        "Inclination(deg)": 53.0,
        "Latitude(deg)": -37.85096305713699,
        "Longitude(deg)": 96.15470399536133,
        "Mean Anomaly(deg)": -49.91579732613293,
        "RAAN(deg)": 234.96005470403458,
        "Satellite Name": "Starlink Shell 1 1050",
        "Satellite Number": 1050,
        "Semi-Major Axis(m)": 6931778.249405717,
        "Time(s)": 770
    },
    {
        "Altitude(m)": 565466.3441533305,
        "Argument of Periapsis(deg)": 0.027189121401876473,
        "Eccentricity": 0.0,
        "Inclination(deg)": 53.0,
        "Latitude(deg)": -37.44227121787634,
        "Longitude(deg)": 96.7111744171779,
        "Mean Anomaly(deg)": -49.288966122576205,
        "RAAN(deg)": 234.9595359339571,
        "Satellite Name": "Starlink Shell 1 1050",
        "Satellite Number": 1050,
        "Semi-Major Axis(m)": 6931778.249405717,
        "Time(s)": 780
    },
    {
        "Altitude(m)": 565297.5972185376,
        "Argument of Periapsis(deg)": 0.02753769988138771,
        "Eccentricity": 0.0,
        "Inclination(deg)": 53.0,
        "Latitude(deg)": -37.030550228248146,
        "Longitude(deg)": 97.2611751920979,
        "Mean Anomaly(deg)": -48.662134919019536,
        "RAAN(deg)": 234.95901716387962,
        "Satellite Name": "Starlink Shell 1 1050",
        "Satellite Number": 1050,
        "Semi-Major Axis(m)": 6931778.249405717,
        "Time(s)": 790
    },
    {
        "Altitude(m)": 565127.9444250253,
        "Argument of Periapsis(deg)": 0.02788627836089895,
        "Eccentricity": 0.0,
        "Inclination(deg)": 53.0,
        "Latitude(deg)": -36.61587523093053,
        "Longitude(deg)": 97.80482527255887,
        "Mean Anomaly(deg)": -48.03530371546277,
        "RAAN(deg)": 234.95849839380216,
        "Satellite Name": "Starlink Shell 1 1050",
        "Satellite Number": 1050,
        "Semi-Major Axis(m)": 6931778.249405717,
        "Time(s)": 800
    },
    {
        "Altitude(m)": 564957.4511677724,
        "Argument of Periapsis(deg)": 0.02823485684041019,
        "Eccentricity": 0.0,
        "Inclination(deg)": 53.0,
        "Latitude(deg)": -36.19831971248198,
        "Longitude(deg)": 98.34224338203045,
        "Mean Anomaly(deg)": -47.40847251190602,
        "RAAN(deg)": 234.9579796237247,
        "Satellite Name": "Starlink Shell 1 1050",
        "Satellite Number": 1050,
        "Semi-Major Axis(m)": 6931778.249405717,
        "Time(s)": 810
    },
    {
        "Altitude(m)": 564786.183071429,
        "Argument of Periapsis(deg)": 0.028583435319921423,
        "Eccentricity": 0.0,
        "Inclination(deg)": 53.0,
        "Latitude(deg)": -35.777955531134474,
        "Longitude(deg)": 98.87354839070616,
        "Mean Anomaly(deg)": -46.78164130834935,
        "RAAN(deg)": 234.9574608536472,
        "Satellite Name": "Starlink Shell 1 1050",
        "Satellite Number": 1050,
        "Semi-Major Axis(m)": 6931778.249405717,
        "Time(s)": 820
    },
    {
        "Altitude(m)": 564614.2059610612,
        "Argument of Periapsis(deg)": 0.028932013799432665,
        "Eccentricity": 0.0,
        "Inclination(deg)": 53.0,
        "Latitude(deg)": -35.35485294563569,
        "Longitude(deg)": 99.39885818926544,
        "Mean Anomaly(deg)": -46.15481010479267,
        "RAAN(deg)": 234.95694208356971,
        "Satellite Name": "Starlink Shell 1 1050",
        "Satellite Number": 1050,
        "Semi-Major Axis(m)": 6931778.249405717,
        "Time(s)": 830
    },
    {
        "Altitude(m)": 564441.5858328091,
        "Argument of Periapsis(deg)": 0.029280592278943897,
        "Eccentricity": 0.0,
        "Inclination(deg)": 53.0,
        "Latitude(deg)": -34.92908064498018,
        "Longitude(deg)": 99.91829008586883,
        "Mean Anomaly(deg)": -45.527978901235954,
        "RAAN(deg)": 234.9564233134923,
        "Satellite Name": "Starlink Shell 1 1050",
        "Satellite Number": 1050,
        "Semi-Major Axis(m)": 6931778.249405717,
        "Time(s)": 840
    },
    {
        "Altitude(m)": 564268.3888244316,
        "Argument of Periapsis(deg)": 0.029629170758455132,
        "Eccentricity": 0.0,
        "Inclination(deg)": 53.0,
        "Latitude(deg)": -34.50070577888159,
        "Longitude(deg)": 100.4319612129528,
        "Mean Anomaly(deg)": -44.901147697679185,
        "RAAN(deg)": 234.9559045434148,
        "Satellite Name": "Starlink Shell 1 1050",
        "Satellite Number": 1050,
        "Semi-Major Axis(m)": 6931778.249405717,
        "Time(s)": 850
    },
    {
        "Altitude(m)": 564094.6811857884,
        "Argument of Periapsis(deg)": 0.02997774923796637,
        "Eccentricity": 0.0,
        "Inclination(deg)": 53.0,
        "Latitude(deg)": -34.069793988849376,
        "Longitude(deg)": 100.93998726230718,
        "Mean Anomaly(deg)": -44.27431649412249,
        "RAAN(deg)": 234.9553857733373,
        "Satellite Name": "Starlink Shell 1 1050",
        "Satellite Number": 1050,
        "Semi-Major Axis(m)": 6931778.249405717,
        "Time(s)": 860
    },
    {
        "Altitude(m)": 563920.5292492477,
        "Argument of Periapsis(deg)": 0.030326327717477602,
        "Eccentricity": 0.0,
        "Inclination(deg)": 53.0,
        "Latitude(deg)": -33.63640943974498,
        "Longitude(deg)": 101.44248375032163,
        "Mean Anomaly(deg)": -43.64748529056577,
        "RAAN(deg)": 234.95486700325984,
        "Satellite Name": "Starlink Shell 1 1050",
        "Satellite Number": 1050,
        "Semi-Major Axis(m)": 6931778.249405717,
        "Time(s)": 870
    },
    {
        "Altitude(m)": 563745.999400056,
        "Argument of Periapsis(deg)": 0.030674906196988847,
        "Eccentricity": 0.0,
        "Inclination(deg)": 53.0,
        "Latitude(deg)": -33.20061485170282,
        "Longitude(deg)": 101.9395647699796,
        "Mean Anomaly(deg)": -43.02065408700899,
        "RAAN(deg)": 234.9543482331824,
        "Satellite Name": "Starlink Shell 1 1050",
        "Satellite Number": 1050,
        "Semi-Major Axis(m)": 6931778.249405717,
        "Time(s)": 880
    },
    {
        "Altitude(m)": 563571.1580466531,
        "Argument of Periapsis(deg)": 0.031023484676500086,
        "Eccentricity": 0.0,
        "Inclination(deg)": 53.0,
        "Latitude(deg)": -32.762471532310855,
        "Longitude(deg)": 102.43134343152616,
        "Mean Anomaly(deg)": -42.39382288345232,
        "RAAN(deg)": 234.9538294631049,
        "Satellite Name": "Starlink Shell 1 1050",
        "Satellite Number": 1050,
        "Semi-Major Axis(m)": 6931778.249405717,
        "Time(s)": 890
    },
    {
        "Altitude(m)": 563396.0715909917,
        "Argument of Periapsis(deg)": 0.03137206315601132,
        "Eccentricity": 0.0,
        "Inclination(deg)": 53.0,
        "Latitude(deg)": -32.32203940895485,
        "Longitude(deg)": 102.91793231035997,
        "Mean Anomaly(deg)": -41.76699167989571,
        "RAAN(deg)": 234.95331069302745,
        "Satellite Name": "Starlink Shell 1 1050",
        "Satellite Number": 1050,
        "Semi-Major Axis(m)": 6931778.249405717,
        "Time(s)": 900
    },
    {
        "Altitude(m)": 563220.8063987928,
        "Argument of Periapsis(deg)": 0.03172064163552255,
        "Eccentricity": 0.0,
        "Inclination(deg)": 53.0,
        "Latitude(deg)": -31.87937706123948,
        "Longitude(deg)": 103.3994423888202,
        "Mean Anomaly(deg)": -41.140160476338906,
        "RAAN(deg)": 234.95279192294996,
        "Satellite Name": "Starlink Shell 1 1050",
        "Satellite Number": 1050,
        "Semi-Major Axis(m)": 6931778.249405717,
        "Time(s)": 910
    },
    {
        "Altitude(m)": 563045.4287698806,
        "Argument of Periapsis(deg)": 0.0320692201150338,
        "Eccentricity": 0.0,
        "Inclination(deg)": 53.0,
        "Latitude(deg)": -31.434541753408105,
        "Longitude(deg)": 103.87598351717236,
        "Mean Anomaly(deg)": -40.51332927278214,
        "RAAN(deg)": 234.95227315287246,
        "Satellite Name": "Starlink Shell 1 1050",
        "Satellite Number": 1050,
        "Semi-Major Axis(m)": 6931778.249405717,
        "Time(s)": 920
    },
    {
        "Altitude(m)": 562870.0049084804,
        "Argument of Periapsis(deg)": 0.032417798594545036,
        "Eccentricity": 0.0,
        "Inclination(deg)": 53.0,
        "Latitude(deg)": -30.987589466688902,
        "Longitude(deg)": 104.34766488050181,
        "Mean Anomaly(deg)": -39.88649806922552,
        "RAAN(deg)": 234.95175438279503,
        "Satellite Name": "Starlink Shell 1 1050",
        "Satellite Number": 1050,
        "Semi-Major Axis(m)": 6931778.249405717,
        "Time(s)": 930
    },
    {
        "Altitude(m)": 562694.6008935721,
        "Argument of Periapsis(deg)": 0.03276637707405627,
        "Eccentricity": 0.0,
        "Inclination(deg)": 53.0,
        "Latitude(deg)": -30.538574931503664,
        "Longitude(deg)": 104.81459395824396,
        "Mean Anomaly(deg)": -39.25966686566885,
        "RAAN(deg)": 234.95123561271754,
        "Satellite Name": "Starlink Shell 1 1050",
        "Satellite Number": 1050,
        "Semi-Major Axis(m)": 6931778.249405717,
        "Time(s)": 940
    }
]